[{"OBJECT_NAME":"STARLINK-5555","OBJECT_ID":"2023-013BH","EPOCH":"2026-03-09T00:22:07.061664","MEAN_MOTION":15.0252825,"ECCENTRICITY":0.00013572,"INCLINATION":43.0047,"RA_OF_ASC_NODE":316.4977,"ARG_OF_PERICENTER":272.1592,"MEAN_ANOMALY":87.9095,"EPHEMERIS_TYPE":0,"CLASSIFICATION_TYPE":"U","NORAD_CAT_ID":55386,"ELEMENT_SET_NO":999,"REV_AT_EPOCH":17146,"BSTAR":-5.3830101e-5,"MEAN_MOTION_DOT":-9.31e-6,"MEAN_MOTION_DDOT":0},{"OBJECT_NAME":"DELTA 1 DEB","OBJECT_ID":"1977-065BE","EPOCH":"2026-03-09T09:09:48.919680","MEAN_MOTION":13.52845319,"ECCENTRICITY":0.06744391,"INCLINATION":28.949,"RA_OF_ASC_NODE":116.2566,"ARG_OF_PERICENTER":133.7592,"MEAN_ANOMALY":232.0825,"EPHEMERIS_TYPE":0,"CLASSIFICATION_TYPE":"U","NORAD_CAT_ID":10227,"ELEMENT_SET_NO":999,"REV_AT_EPOCH":36115,"BSTAR":0.00043535963,"MEAN_MOTION_DOT":1.389e-5,"MEAN_MOTION_DDOT":0}]
